OBJECT_NAME,OBJECT_ID,EPOCH,MEAN_MOTION,ECCENTRICITY,INCLINATION,RA_OF_ASC_NODE,ARG_OF_PERICENTER,MEAN_ANOMALY,EPHEMERIS_TYPE,CLASSIFICATION_TYPE,NORAD_CAT_ID,ELEMENT_SET_NO,REV_AT_EPOCH,BSTAR,MEAN_MOTION_DOT,MEAN_MOTION_DDOT
SARSAT 7 (NOAA 15),1998-030A,2024-07-08T03:17:32.249184,14.26621635,.0009085,98.5674,216.8257,262.4140,97.6009,0,U,25338,999,36042,.14224E-3,.3E-5,0
GPS BIIR-08,2003-005A,2024-07-07T03:30:28.943712,2.00573724,.0136368,55.0972,243.2015,47.4080,323.1818,0,U,27663,999,15707,0,.25E-6,0
GPS BIIR-11,2004-009A,2024-07-07T12:00:12.584160,2.00558792,.0098338,55.4363,304.2292,149.2664,275.1084,0,U,28190,999,14871,0,-.72E-6,0
GPS BIIR-13,2004-045A,2024-07-08T02:15:10.488096,2.00561498,.0161847,55.4241,353.3733,292.9697,245.6258,0,U,28474,999,14419,0,-.106E-5,0
SARSAT 10 (NOAA 18),2005-018A,2024-07-08T03:56:54.877056,14.13247676,.0014165,98.8743,266.9554,8.5629,351.5782,0,U,28654,999,98622,.1766E-3,.287E-5,0
GPS BIIR-14M,2005-038A,2024-07-07T10:22:37.840224,2.00554076,.0136374,55.4822,301.6941,284.2483,114.9174,0,U,28874,999,13760,0,-.69E-6,0
METEOSAT-9 (MSG-2),2005-049B,2024-07-07T04:49:43.992768,1.00273503,.0001755,7.7316,60.7049,358.0314,344.9946,0,U,28912,999,6795,0,.118E-5,0
GOES 13,2006-018A,2024-07-07T13:47:33.259200,0.99071226,.0078855,2.6785,85.0643,255.6102,298.5354,0,U,29155,999,6636,0,-.293E-5,0
GPS BIIR-16M,2006-052A,2024-07-06T22:38:03.625728,2.00568958,.0084583,55.1280,242.1886,83.3001,277.7488,0,U,29601,999,12916,0,.28E-6,0
GPS BIIR-17M,2007-047A,2024-07-07T05:53:05.089920,2.00563007,.0156069,53.6165,109.4192,75.7147,286.0068,0,U,32260,999,12257,0,-.33E-6,0
GPS BIIR-18M,2007-062A,2024-07-07T19:18:28.837152,2.00576066,.0028881,55.6219,302.5446,153.1075,19.8245,0,U,32384,999,12134,0,-.7E-6,0
SARSAT 12 (NOAA 19),2009-005A,2024-07-08T01:09:14.511168,14.13042357,.0013084,99.0460,246.0670,230.4905,129.5111,0,U,33591,999,79457,.16638E-3,.265E-5,0
GOES 14,2009-033A,2024-07-07T14:23:48.982272,1.00272645,.0003613,0.3872,102.1286,6.0744,285.2822,0,U,35491,999,5504,0,-.7E-6,0
GOES 15,2010-008A,2024-07-08T03:13:39.969696,1.00271512,.0002909,0.3576,89.0433,107.6141,199.4813,0,U,36411,999,5252,0,.37E-6,0
GSAT0101 (GALILEO-PFM),2011-060A,2024-07-06T11:51:18.073152,1.70475955,.000317,57.1296,1.0112,56.3380,303.6973,0,U,37846,999,7900,0,-.101E-5,0
GSAT0102 (GALILEO-FM2),2011-060B,2024-07-07T07:03:03.864672,1.70475453,.0002586,57.1305,0.9896,16.2207,160.3380,0,U,37847,999,7902,0,-.1E-5,0
LUCH 5A,2011-074B,2024-07-07T11:38:42.900864,1.00274518,.0003858,6.9365,84.6576,26.9854,155.9302,0,U,37951,999,4593,0,-.56E-6,0
METEOSAT-10 (MSG-3),2012-035B,2024-07-07T20:03:58.974336,1.00270994,.000041,3.0110,61.1444,285.3781,240.7468,0,U,38552,999,4410,0,-.12E-6,0
SARSAT 13 (METOP-B),2012-049A,2024-07-07T20:49:40.258848,14.21449700,.0001377,98.6269,246.6258,83.1031,277.0303,0,U,38771,999,61248,.11384E-3,.206E-5,0
GPS BIIF-3,2012-053A,2024-07-07T08:13:01.140384,2.00559003,.0152757,53.5191,172.6457,56.0257,305.3892,0,U,38833,999,8520,0,.23E-6,0
GSAT0103 (GALILEO-FM3),2012-055A,2024-07-01T06:05:36.675744,1.70473498,.0004732,55.4124,121.2192,281.2563,78.6505,0,U,38857,999,7280,0,-.9E-7,0
GPS BIIF-4,2013-023A,2024-07-07T04:55:30.946656,2.00562775,.0123798,55.0948,297.7759,45.0099,316.0097,0,U,39166,999,8164,0,-.63E-6,0
INSAT-3D,2013-038B,2024-07-07T13:35:23.258688,1.00271071,.0002278,0.0441,274.4698,191.8771,105.6284,0,U,39216,999,3996,0,-.16E-5,0
GPS BIIF-5,2014-008A,2024-07-07T04:55:27.212448,2.00569684,.0073372,53.6017,178.2515,220.9974,138.4331,0,U,39533,999,7544,0,.28E-6,0
LUCH 5V,2014-023A,2024-07-08T03:23:18.913632,1.00269048,.000235,3.3483,75.9176,85.7171,270.4617,0,U,39727,999,55540,0,-.272E-5,0
GPS BIIF-6,2014-026A,2024-07-06T23:37:14.398752,2.00567026,.0030889,56.7097,359.1006,316.3519,43.4109,0,U,39741,999,7429,0,-.105E-5,0
GPS BIIF-7,2014-045A,2024-07-07T01:51:25.978464,2.00567763,.0026246,54.9387,116.8140,114.8315,245.4248,0,U,40105,999,7183,0,-.27E-6,0
GSAT0201 (GALILEO 5),2014-050A,2024-07-06T11:47:14.024256,1.85519543,.1612072,49.6397,302.2888,152.0120,217.7162,0,U,40128,999,6513,0,-.92E-6,0
GSAT0202 (GALILEO 6),2014-050B,2024-07-06T05:02:55.769280,1.85520190,.1610909,49.6571,301.3771,152.8009,216.6766,0,U,40129,999,6729,0,-.91E-6,0
GPS BIIF-8,2014-068A,2024-07-06T22:49:02.271936,2.00561139,.0054477,56.4374,58.4689,62.9459,297.6762,0,U,40294,999,7096,0,-.65E-6,0
GLONASS-K 2,2014-075A,2024-07-06T20:12:39.740832,2.13101503,.0021013,63.6220,214.9927,211.4060,148.5323,0,U,40315,999,7471,0,.59E-6,0
